{
    "links": {
        "self": "http://www.neowsapp.com/rest/v1/neo/54088810?api_key=iIulBulltgU6a56xZRHN4H3l9WmuAYTsLGpBGhQ2"
    },
    "id": "54088810",
    "neo_reference_id": "54088810",
    "name": "(2020 WK)",
    "designation": "2020 WK",
    "nasa_jpl_url": "http://ssd.jpl.nasa.gov/sbdb.cgi?sstr=54088810",
    "absolute_magnitude_h": 25.639,
    "estimated_diameter": {
        "kilometers": {
            "estimated_diameter_min": 0.0198040939,
            "estimated_diameter_max": 0.0442833002
        },
        "meters": {
            "estimated_diameter_min": 19.804093889,
            "estimated_diameter_max": 44.2833001687
        },
        "miles": {
            "estimated_diameter_min": 0.0123056896,
            "estimated_diameter_max": 0.0275163585
        },
        "feet": {
            "estimated_diameter_min": 64.9740633949,
            "estimated_diameter_max": 145.2864225254
        }
    },
    "is_potentially_hazardous_asteroid": false,
    "close_approach_data": [
        {
            "close_approach_date": "2016-12-21",
            "close_approach_date_full": "2016-Dec-21 04:22",
            "epoch_date_close_approach": 1482294120000,
            "relative_velocity": {
                "kilometers_per_second": "18.6518011801",
                "kilometers_per_hour": "67146.4842481901",
                "miles_per_hour": "41722.2140596601"
            },
            "miss_distance": {
                "astronomical": "0.457952309",
                "lunar": "178.143448201",
                "kilometers": "68508689.98798183",
                "miles": "42569325.992656054"
            },
            "orbiting_body": "Earth"
        },
        {
            "close_approach_date": "2018-12-07",
            "close_approach_date_full": "2018-Dec-07 23:41",
            "epoch_date_close_approach": 1544226060000,
            "relative_velocity": {
                "kilometers_per_second": "11.6773408665",
                "kilometers_per_hour": "42038.4271194533",
                "miles_per_hour": "26121.043784307"
            },
            "miss_distance": {
                "astronomical": "0.2175768792",
                "lunar": "84.6374060088",
                "kilometers": "32549037.689567304",
                "miles": "20225034.1730006352"
            },
            "orbiting_body": "Earth"
        },
        {
            "close_approach_date": "2020-11-11",
            "close_approach_date_full": "2020-Nov-11 20:09",
            "epoch_date_close_approach": 1605125340000,
            "relative_velocity": {
                "kilometers_per_second": "5.8613699739",
                "kilometers_per_hour": "21100.9319059112",
                "miles_per_hour": "13111.2984945369"
            },
            "miss_distance": {
                "astronomical": "0.0445732012",
                "lunar": "17.3389752668",
                "kilometers": "6668055.958601444",
                "miles": "4143337.8435461672"
            },
            "orbiting_body": "Earth"
        },
        {
            "close_approach_date": "2022-09-24",
            "close_approach_date_full": "2022-Sep-24 06:40",
            "epoch_date_close_approach": 1664001600000,
            "relative_velocity": {
                "kilometers_per_second": "10.3213381761",
                "kilometers_per_hour": "37156.8174341252",
                "miles_per_hour": "23087.8013662208"
            },
            "miss_distance": {
                "astronomical": "0.2235939888",
                "lunar": "86.9780616432",
                "kilometers": "33449184.469283856",
                "miles": "20784359.4456589728"
            },
            "orbiting_body": "Earth"
        },
        {
            "close_approach_date": "2024-09-04",
            "close_approach_date_full": "2024-Sep-04 20:30",
            "epoch_date_close_approach": 1725481800000,
            "relative_velocity": {
                "kilometers_per_second": "17.6467848655",
                "kilometers_per_hour": "63528.4255157438",
                "miles_per_hour": "39474.0930656021"
            },
            "miss_distance": {
                "astronomical": "0.4538809957",
                "lunar": "176.5597073273",
                "kilometers": "67899630.190199159",
                "miles": "42190873.7833760342"
            },
            "orbiting_body": "Earth"
        }
    ],
    "orbital_data": {
        "orbit_id": "7",
        "orbit_determination_date": "2020-12-07 05:26:52",
        "first_observation_date": "2020-11-11",
        "last_observation_date": "2020-12-07",
        "data_arc_in_days": 26,
        "observations_used": 31,
        "orbit_uncertainty": "7",
        "minimum_orbit_intersection": ".0416246",
        "jupiter_tisserand_invariant": "4.338",
        "epoch_osculation": "2459000.5",
        "eccentricity": ".352754441522805",
        "semi_major_axis": "1.567860884145042",
        "inclination": "6.976073599831454",
        "ascending_node_longitude": "64.02168229289768",
        "orbital_period": "717.0669642300136",
        "perihelion_distance": "1.014790993573007",
        "perihelion_argument": "334.6893528815834",
        "aphelion_distance": "2.120930774717078",
        "perihelion_time": "2459154.864022672723",
        "mean_anomaly": "282.5022892780278",
        "mean_motion": ".5020451616908164",
        "equinox": "J2000",
        "orbit_class": {
            "orbit_class_type": "APO",
            "orbit_class_description": "Near-Earth asteroid orbits which cross the Earth’s orbit similar to that of 1862 Apollo",
            "orbit_class_range": "a (semi-major axis) > 1.0 AU; q (perihelion) < 1.017 AU"
        }
    },
    "is_sentry_object": false
}